COMMENT,ORIGINATOR,NORAD_CAT_ID,OBJECT_NAME,OBJECT_TYPE,CLASSIFICATION_TYPE,INTLDES,EPOCH,EPOCH_MICROSECONDS,MEAN_MOTION,ECCENTRICITY,INCLINATION,RA_OF_ASC_NODE,ARG_OF_PERICENTER,MEAN_ANOMALY,EPHEMERIS_TYPE,ELEMENT_SET_NO,REV_AT_EPOCH,BSTAR,MEAN_MOTION_DOT,MEAN_MOTION_DDOT,FILE,TLE_LINE0,TLE_LINE1,TLE_LINE2,OBJECT_ID,OBJECT_NUMBER,SEMIMAJOR_AXIS,PERIOD,APOGEE,PERIGEE,DECAYED
"GENERATED VIA SPACETRACK.ORG API","18 SPCS","55091","SPACEBEE-164","PAYLOAD","U","23001CL","2023-11-19 09:55:31","378368","15.27015249","0.0012923","97.4556","22.5797","174.096","186.0433","0","999","4872","0.00069851","0.00018515","0","4096886","0 SPACEBEE-164","1 55091U 23001CL  23323.41355762  .00018515  00000-0  69851-3 0  9994","2 55091  97.4556  22.5797 0012923 174.0960 186.0433 15.27015249 48726","2023-001CL","55091","6862.878","94.302","493.612","475.874","0"
"GENERATED VIA SPACETRACK.ORG API","18 SPCS","55091","SPACEBEE-164","PAYLOAD","U","23001CL","2023-11-19 17:47:19","997952","15.27027954","0.0012946","97.4557","22.907","173.0022","187.1399","0","999","4877","0.00073205","0.00019418","0","4097440","0 SPACEBEE-164","1 55091U 23001CL  23323.74120368  .00019418  00000-0  73205-3 0  9993","2 55091  97.4557  22.9070 0012946 173.0022 187.1399 15.27027954 48772","2023-001CL","55091","6862.840","94.301","493.589","475.820","0"
"GENERATED VIA SPACETRACK.ORG API","18 SPCS","55091","SPACEBEE-164","PAYLOAD","U","23001CL","2023-11-20 09:30:56","447424","15.27054226","0.0012987","97.4557","23.5614","170.7337","189.4144","0","999","4887","0.00076398","0.00020287","0","4098394","0 SPACEBEE-164","1 55091U 23001CL  23324.39648666  .00020287  00000-0  76398-3 0  9993","2 55091  97.4557  23.5614 0012987 170.7337 189.4144 15.27054226 48877","2023-001CL","55091","6862.761","94.299","493.539","475.713","0"
"GENERATED VIA SPACETRACK.ORG API","18 SPCS","55091","SPACEBEE-164","PAYLOAD","U","23001CL","2023-11-20 18:57:05","810976","15.27073782","0.0012991","97.4559","23.9541","169.4489","190.7025","0","999","4893","0.0008588","0.00022835","0","4098983","0 SPACEBEE-164","1 55091U 23001CL  23324.78965059  .00022835  00000-0  85880-3 0  9991","2 55091  97.4559  23.9541 0012991 169.4489 190.7025 15.27073782 48938","2023-001CL","55091","6862.702","94.298","493.483","475.652","0"
"GENERATED VIA SPACETRACK.ORG API","18 SPCS","55091","SPACEBEE-164","PAYLOAD","U","23001CL","2023-11-20 22:05:48","823008","15.2707945","0.0013003","97.456","24.085","168.9886","191.164","0","999","4895","0.00084785","0.00022546","0","4099015","0 SPACEBEE-164","1 55091U 23001CL  23324.92070397  .00022546  00000-0  84785-3 0  9991","2 55091  97.4560  24.0850 0013003 168.9886 191.1640 15.27079450 48953","2023-001CL","55091","6862.685","94.298","493.474","475.627","0"
"GENERATED VIA SPACETRACK.ORG API","18 SPCS","55091","SPACEBEE-164","PAYLOAD","U","23001CL","2023-11-21 02:48:53","260704","15.27089083","0.0013016","97.456","24.2815","168.3062","191.8482","0","999","4898","0.0008483","0.00022565","0","4100115","0 SPACEBEE-164","1 55091U 23001CL  23325.11728311  .00022565  00000-0  84830-3 0  9991","2 55091  97.4560  24.2815 0013016 168.3062 191.8482 15.27089083 48987","2023-001CL","55091","6862.656","94.297","493.454","475.589","0"
"GENERATED VIA SPACETRACK.ORG API","18 SPCS","55091","SPACEBEE-164","PAYLOAD","U","23001CL","2023-11-21 16:58:05","835072","15.27126757","0.0013068","97.4561","24.8705","166.0124","194.1479","0","999","4907","0.0011046","0.00029466","0","4100393","0 SPACEBEE-164","1 55091U 23001CL  23325.70701198  .00029466  00000-0  11046-2 0  9995","2 55091  97.4561  24.8705 0013068 166.0124 194.1479 15.27126757 49076","2023-001CL","55091","6862.544","94.295","493.377","475.441","0"
"GENERATED VIA SPACETRACK.ORG API","18 SPCS","55091","SPACEBEE-164","PAYLOAD","U","23001CL","2023-11-22 03:58:34","745952","15.27158125","0.0013056","97.4561","25.3288","164.3565","195.8079","0","999","4914","0.0012699","0.00033939","0","4101195","0 SPACEBEE-164","1 55091U 23001CL  23326.16567993  .00033939  00000-0  12699-2 0  9994","2 55091  97.4561  25.3288 0013056 164.3565 195.8079 15.27158125 49141","2023-001CL","55091","6862.450","94.293","493.274","475.355","0"
"GENERATED VIA SPACETRACK.ORG API","18 SPCS","55091","SPACEBEE-164","PAYLOAD","U","23001CL","2023-11-22 03:58:34","745952","15.27158125","0.0013056","97.4561","25.3288","164.3565","195.8079","0","999","4914","0.0012699","0.00033939","0","4101817","0 SPACEBEE-164","1 55091U 23001CL  23326.16567993  .00033939  00000-0  12699-2 0  9994","2 55091  97.4561  25.3288 0013056 164.3565 195.8079 15.27158125 49141","2023-001CL","55091","6862.450","94.293","493.274","475.355","0"
"GENERATED VIA SPACETRACK.ORG API","18 SPCS","55091","SPACEBEE-164","PAYLOAD","U","23001CL","2023-11-22 16:33:23","668992","15.27205243","0.0013145","97.456","25.8522","162.6287","197.5404","0","999","4922","0.001503","0.00040275","0","4102292","0 SPACEBEE-164","1 55091U 23001CL  23326.68985728  .00040275  00000-0  15030-2 0  9994","2 55091  97.4560  25.8522 0013145 162.6287 197.5404 15.27205243 49221","2023-001CL","55091","6862.308","94.290","493.194","475.153","0"
"GENERATED VIA SPACETRACK.ORG API","18 SPCS","55091","SPACEBEE-164","PAYLOAD","U","23001CL","2023-11-22 16:33:23","668992","15.27205243","0.0013145","97.456","25.8522","162.6287","197.5404","0","999","4922","0.001503","0.00040275","0","4102346","0 SPACEBEE-164","1 55091U 23001CL  23326.68985728  .00040275  00000-0  15030-2 0  9994","2 55091  97.4560  25.8522 0013145 162.6287 197.5404 15.27205243 49221","2023-001CL","55091","6862.308","94.290","493.194","475.153","0"
"GENERATED VIA SPACETRACK.ORG API","18 SPCS","55091","SPACEBEE-164","PAYLOAD","U","23001CL","2023-11-23 11:25:34","725504","15.27266626","0.0013205","97.4562","26.6379","160.1543","200.0212","0","999","4934","0.0014261","0.00038272","0","4103560","0 SPACEBEE-164","1 55091U 23001CL  23327.47609636  .00038272  00000-0  14261-2 0  9992","2 55091  97.4562  26.6379 0013205 160.1543 200.0212 15.27266626 49349","2023-001CL","55091","6862.125","94.286","493.051","474.928","0"
"GENERATED VIA SPACETRACK.ORG API","18 SPCS","55091","SPACEBEE-164","PAYLOAD","U","23001CL","2023-11-24 03:09:02","10528","15.27309868","0.0013201","97.4561","27.2922","158.0574","202.1233","0","999","4944","0.0012263","0.0003292","0","4104593","0 SPACEBEE-164","1 55091U 23001CL  23328.13127327  .00032920  00000-0  12263-2 0  9992","2 55091  97.4561  27.2922 0013201 158.0574 202.1233 15.27309868 49448","2023-001CL","55091","6861.995","94.283","492.919","474.802","0"
"GENERATED VIA SPACETRACK.ORG API","18 SPCS","55091","SPACEBEE-164","PAYLOAD","U","23001CL","2023-11-24 03:09:02","10528","15.27309868","0.0013201","97.4561","27.2922","158.0574","202.1233","0","999","4944","0.0012263","0.0003292","0","4105170","0 SPACEBEE-164","1 55091U 23001CL  23328.13127327  .00032920  00000-0  12263-2 0  9992","2 55091  97.4561  27.2922 0013201 158.0574 202.1233 15.27309868 49448","2023-001CL","55091","6861.995","94.283","492.919","474.802","0"
"GENERATED VIA SPACETRACK.ORG API","18 SPCS","55091","SPACEBEE-164","PAYLOAD","U","23001CL","2023-11-24 17:18:07","145856","15.27351539","0.0013138","97.4561","27.8816","156.0246","204.1607","0","999","4953","0.0012667","0.00034054","0","4105877","0 SPACEBEE-164","1 55091U 23001CL  23328.72091604  .00034054  00000-0  12667-2 0  9993","2 55091  97.4561  27.8816 0013138 156.0246 204.1607 15.27351539 49538","2023-001CL","55091","6861.870","94.281","492.750","474.720","0"
"GENERATED VIA SPACETRACK.ORG API","18 SPCS","55091","SPACEBEE-164","PAYLOAD","U","23001CL","2023-11-25 02:44:09","771936","15.27382279","0.0013127","97.456","28.2744","154.5611","205.6277","0","999","4959","0.0013912","0.0003746","0","4106483","0 SPACEBEE-164","1 55091U 23001CL  23329.11400199  .00037460  00000-0  13912-2 0  9998","2 55091  97.4560  28.2744 0013127 154.5611 205.6277 15.27382279 49599","2023-001CL","55091","6861.778","94.279","492.651","474.636","0"
"GENERATED VIA SPACETRACK.ORG API","18 SPCS","55091","SPACEBEE-164","PAYLOAD","U","23001CL","2023-11-25 16:53:12","223680","15.27442106","0.0013208","97.4562","28.864","152.4259","207.7683","0","999","4968","0.001842","0.00049795","0","4106487","0 SPACEBEE-164","1 55091U 23001CL  23329.70361370  .00049795  00000-0  18420-2 0  9993","2 55091  97.4562  28.8640 0013208 152.4259 207.7683 15.27442106 49687","2023-001CL","55091","6861.599","94.275","492.527","474.401","0"
"GENERATED VIA SPACETRACK.ORG API","18 SPCS","55091","SPACEBEE-164","PAYLOAD","U","23001CL","2023-11-26 03:53:32","605152","15.27489818","0.0013234","97.4558","29.3222","150.8706","209.3273","0","999","4975","0.0017541","0.0004747","0","4107973","0 SPACEBEE-164","1 55091U 23001CL  23330.16218293  .00047470  00000-0  17541-2 0  9991","2 55091  97.4558  29.3222 0013234 150.8706 209.3273 15.27489818 49754","2023-001CL","55091","6861.456","94.272","492.402","474.241","0"
"GENERATED VIA SPACETRACK.ORG API","18 SPCS","55091","SPACEBEE-164","PAYLOAD","U","23001CL","2023-11-26 16:28:11","606880","15.27534157","0.0013119","97.4553","29.8466","148.7422","211.46","0","999","4983","0.0012127","0.00032775","0","4108592","0 SPACEBEE-164","1 55091U 23001CL  23330.68624545  .00032775  00000-0  12127-2 0  9996","2 55091  97.4553  29.8466 0013119 148.7422 211.4600 15.27534157 49831","2023-001CL","55091","6861.323","94.270","492.190","474.187","0"
"GENERATED VIA SPACETRACK.ORG API","18 SPCS","55091","SPACEBEE-164","PAYLOAD","U","23001CL","2023-11-27 03:28:29","706528","15.2756819","0.0013183","97.4556","30.3048","147.8057","212.3989","0","999","4990","0.0010991","0.00029717","0","4108964","0 SPACEBEE-164","1 55091U 23001CL  23331.14478827  .00029717  00000-0  10991-2 0  9997","2 55091  97.4556  30.3048 0013183 147.8057 212.3989 15.27568190 49904","2023-001CL","55091","6861.221","94.267","492.132","474.041","0"
